GSAT0101 (PRN E11)      
1 37846U 11060A   18246.08548844 -.00000015  00000-0  00000+0 0  9994
2 37846  56.1674  59.3499 0002299  19.3784 340.6726  1.70475848 42763
GSAT0102 (PRN E12)      
1 37847U 11060B   18246.58452159 -.00000015  00000-0  00000-0 0  9994
2 37847  56.1685  59.3351 0002506 328.6628  23.7475  1.70475704 42645
GSAT0103 (PRN E19)      
1 38857U 12055A   18246.12667801  .00000013  00000-0  00000+0 0  9999
2 38857  54.9125 179.7894 0003901 263.6808  96.2688  1.70473732 36675
GSAT0104 (PRN E20)      
1 38858U 12055B   18246.06091971  .00000014  00000-0  00000+0 0  9993
2 38858  54.9131 179.7902 0002874 271.4972  88.4641  1.70473759 36626
GSAT0201 (PRN E18)      
1 40128U 14050A   18247.20341608 -.00000065  00000-0  00000+0 0  9992
2 40128  50.5043  27.4299 1655272  78.3779 299.6817  1.85519052 27519
GSAT0202 (PRN E14)      
1 40129U 14050B   18246.93051534 -.00000065  00000-0  00000+0 0  9998
2 40129  50.5519  26.4537 1655189  79.2759 298.8715  1.85519676 27708
GSAT0203 (PRN E26)      
1 40544U 15017A   18245.86428106 -.00000015  00000-0  00000+0 0  9992
2 40544  55.9576  59.5821 0002098 210.2319 149.7983  1.70475038 21372
GSAT0204 (PRN E22)      
1 40545U 15017B   18246.23326515 -.00000015  00000-0  00000+0 0  9996
2 40545  55.9645  59.5848 0002551 146.6283 213.4306  1.70475291 21385
GSAT0205 (PRN E24)      
1 40889U 15045A   18243.54295305 -.00000005  00000-0  00000-0 0  9991
2 40889  56.6776 300.1100 0001266 317.1547  42.9153  1.70475145 18485
GSAT0206 (PRN E30)      
1 40890U 15045B   18243.17614524 -.00000004  00000-0  00000+0 0  9998
2 40890  56.6771 300.1168 0001520 243.9042 116.1613  1.70475187 18509
GSAT0209 (PRN E09)      
1 41174U 15079A   18246.28029092  .00000012  00000-0  00000+0 0  9994
2 41174  54.9260 179.4770 0005544 301.5652  58.3745  1.70473066 16878
GSAT0208 (PRN E08)      
1 41175U 15079B   18247.08674587  .00000005  00000-0  00000+0 0  9991
2 41175  54.9243 179.4552 0004635 302.2408  57.7048  1.70472981 16891
GSAT0211 (PRN E02)      
1 41549U 16030A   18246.03538925 -.00000004  00000-0  00000-0 0  9994
2 41549  56.8152 299.8283 0003679 259.1143 100.9194  1.70474857 14184
GSAT0210 (PRN E01)      
1 41550U 16030B   18245.74195703 -.00000005  00000-0  00000+0 0  9996
2 41550  56.8149 299.8384 0004476 235.6901 124.3427  1.70474899 14153
GSAT0207 (PRN E07)      
1 41859U 16069A   18246.57366817  .00000009  00000-0  00000+0 0  9991
2 41859  54.5844 179.9959 0005258 290.9268  69.0089  1.70472933 11150
GSAT0212 (PRN E03)      
1 41860U 16069B   18245.84049051  .00000015  00000-0  00000-0 0  9998
2 41860  54.5818 180.0164 0004353 307.6373  52.3177  1.70472906 11166
GSAT0213 (PRN E04)      
1 41861U 16069C   18245.62020052  .00000016  00000-0  00000+0 0  9995
2 41861  54.5843 180.0251 0004197 271.8062  88.1408  1.70473201 11168
GSAT0214 (PRN E05)      
1 41862U 16069D   18245.18041602  .00000018  00000-0  00000-0 0  9994
2 41862  54.5826 180.0336 0003508 277.4929  82.4630  1.70472944 11148
GSAT0215 (PRN E21)      
1 43055U 17079A   18245.66651374 -.00000004  00000-0  00000+0 0  9993
2 43055  56.7900 299.6928 0004065 227.3212 132.7197  1.70473992  4494
GSAT0216 (PRN E25)      
1 43056U 17079B   18245.37311011 -.00000004  00000-0  00000+0 0  9993
2 43056  56.7905 299.7002 0005697 240.2405 119.7783  1.70474121  4473
GSAT0217 (PRN E27)      
1 43057U 17079C   18246.76626742 -.00000004  00000-0  00000+0 0  9998
2 43057  56.7878 299.6638 0004959 246.5440 113.4796  1.70474127  4511
GSAT0218 (PRN E31)      
1 43058U 17079D   18246.39964209 -.00000004  00000-0  00000+0 0  9991
2 43058  56.7881 299.6711 0006268 239.8399 120.1732  1.70474086  4510
